CCSDS_OMM_VERS = 2.0
CREATION_DATE  = 
ORIGINATOR     = 

OBJECT_NAME    = STARLINK-36423
OBJECT_ID      = 2026-008D
CENTER_NAME    = EARTH
REF_FRAME      = TEME
TIME_SYSTEM    = UTC
MEAN_ELEMENT_THEORY = SGP/SGP4

EPOCH          = 2026-02-01T22:00:01.999584
MEAN_MOTION    = 15.72158026
ECCENTRICITY   = .00015935
INCLINATION    = 43.0001
RA_OF_ASC_NODE = 50.5917
ARG_OF_PERICENTER = 261.7209
MEAN_ANOMALY   = 73.7687

EPHEMERIS_TYPE = 0
CLASSIFICATION_TYPE = U
NORAD_CAT_ID   = 67448
ELEMENT_SET_NO = 999
REV_AT_EPOCH   = 404
BSTAR          = -.17288176E-1
MEAN_MOTION_DOT = -.2061446E-1
MEAN_MOTION_DDOT = 0

CCSDS_OMM_VERS = 2.0
CREATION_DATE  = 
ORIGINATOR     = 

OBJECT_NAME    = STARLINK-36519
OBJECT_ID      = 2026-008E
CENTER_NAME    = EARTH
REF_FRAME      = TEME
TIME_SYSTEM    = UTC
MEAN_ELEMENT_THEORY = SGP/SGP4

EPOCH          = 2026-02-01T22:00:01.999584
MEAN_MOTION    = 15.75048217
ECCENTRICITY   = .00015719
INCLINATION    = 43.0002
RA_OF_ASC_NODE = 50.5787
ARG_OF_PERICENTER = 262.8092
MEAN_ANOMALY   = 77.9303

EPHEMERIS_TYPE = 0
CLASSIFICATION_TYPE = U
NORAD_CAT_ID   = 67449
ELEMENT_SET_NO = 999
REV_AT_EPOCH   = 404
BSTAR          = -.14704657E-3
MEAN_MOTION_DOT = -.23013E-3
MEAN_MOTION_DDOT = 0

CCSDS_OMM_VERS = 2.0
CREATION_DATE  = 
ORIGINATOR     = 

OBJECT_NAME    = STARLINK-36525
OBJECT_ID      = 2026-008F
CENTER_NAME    = EARTH
REF_FRAME      = TEME
TIME_SYSTEM    = UTC
MEAN_ELEMENT_THEORY = SGP/SGP4

EPOCH          = 2026-02-01T22:00:01.999584
MEAN_MOTION    = 15.74659943
ECCENTRICITY   = .00017991
INCLINATION    = 42.9999
RA_OF_ASC_NODE = 50.5733
ARG_OF_PERICENTER = 258.2631
MEAN_ANOMALY   = 84.3208

EPHEMERIS_TYPE = 0
CLASSIFICATION_TYPE = U
NORAD_CAT_ID   = 67450
ELEMENT_SET_NO = 999
REV_AT_EPOCH   = 404
BSTAR          = -.15727825E-1
MEAN_MOTION_DOT = -.2087671E-1
MEAN_MOTION_DDOT = 0

CCSDS_OMM_VERS = 2.0
CREATION_DATE  = 
ORIGINATOR     = 

OBJECT_NAME    = STARLINK-36511
OBJECT_ID      = 2026-008G
CENTER_NAME    = EARTH
REF_FRAME      = TEME
TIME_SYSTEM    = UTC
MEAN_ELEMENT_THEORY = SGP/SGP4

EPOCH          = 2026-02-01T22:00:01.999584
MEAN_MOTION    = 15.72420574
ECCENTRICITY   = .00016201
INCLINATION    = 42.9999
RA_OF_ASC_NODE = 50.5757
ARG_OF_PERICENTER = 265.1579
MEAN_ANOMALY   = 76.6629

EPHEMERIS_TYPE = 0
CLASSIFICATION_TYPE = U
NORAD_CAT_ID   = 67451
ELEMENT_SET_NO = 999
REV_AT_EPOCH   = 404
BSTAR          = -.17118745E-1
MEAN_MOTION_DOT = -.2064112E-1
MEAN_MOTION_DDOT = 0

CCSDS_OMM_VERS = 2.0
CREATION_DATE  = 
ORIGINATOR     = 

OBJECT_NAME    = STARLINK-36524
OBJECT_ID      = 2026-008H
CENTER_NAME    = EARTH
REF_FRAME      = TEME
TIME_SYSTEM    = UTC
MEAN_ELEMENT_THEORY = SGP/SGP4

EPOCH          = 2026-02-01T22:00:01.999584
MEAN_MOTION    = 15.75373713
ECCENTRICITY   = .00017524
INCLINATION    = 43.0001
RA_OF_ASC_NODE = 50.5633
ARG_OF_PERICENTER = 266.4053
MEAN_ANOMALY   = 80.0534

EPHEMERIS_TYPE = 0
CLASSIFICATION_TYPE = U
NORAD_CAT_ID   = 67452
ELEMENT_SET_NO = 999
REV_AT_EPOCH   = 404
BSTAR          = -.14138933E-1
MEAN_MOTION_DOT = -.1915054E-1
MEAN_MOTION_DDOT = 0

CCSDS_OMM_VERS = 2.0
CREATION_DATE  = 
ORIGINATOR     = 

OBJECT_NAME    = STARLINK-36518
OBJECT_ID      = 2026-008J
CENTER_NAME    = EARTH
REF_FRAME      = TEME
TIME_SYSTEM    = UTC
MEAN_ELEMENT_THEORY = SGP/SGP4

EPOCH          = 2026-02-01T22:00:01.999584
MEAN_MOTION    = 15.75043784
ECCENTRICITY   = .00015554
INCLINATION    = 42.9990
RA_OF_ASC_NODE = 50.1940
ARG_OF_PERICENTER = 264.7013
MEAN_ANOMALY   = 226.4632

EPHEMERIS_TYPE = 0
CLASSIFICATION_TYPE = U
NORAD_CAT_ID   = 67453
ELEMENT_SET_NO = 999
REV_AT_EPOCH   = 406
BSTAR          = -.1003387E-3
MEAN_MOTION_DOT = -.15864E-3
MEAN_MOTION_DDOT = 0

CCSDS_OMM_VERS = 2.0
CREATION_DATE  = 
ORIGINATOR     = 

OBJECT_NAME    = STARLINK-36517
OBJECT_ID      = 2026-008K
CENTER_NAME    = EARTH
REF_FRAME      = TEME
TIME_SYSTEM    = UTC
MEAN_ELEMENT_THEORY = SGP/SGP4

EPOCH          = 2026-02-01T22:00:01.999584
MEAN_MOTION    = 15.70867665
ECCENTRICITY   = .00014329
INCLINATION    = 42.9998
RA_OF_ASC_NODE = 50.5760
ARG_OF_PERICENTER = 263.8059
MEAN_ANOMALY   = 77.6358

EPHEMERIS_TYPE = 0
CLASSIFICATION_TYPE = U
NORAD_CAT_ID   = 67454
ELEMENT_SET_NO = 999
REV_AT_EPOCH   = 406
BSTAR          = -.18277497E-1
MEAN_MOTION_DOT = -.2062133E-1
MEAN_MOTION_DDOT = 0

CCSDS_OMM_VERS = 2.0
CREATION_DATE  = 
ORIGINATOR     = 

OBJECT_NAME    = STARLINK-36516
OBJECT_ID      = 2026-008L
CENTER_NAME    = EARTH
REF_FRAME      = TEME
TIME_SYSTEM    = UTC
MEAN_ELEMENT_THEORY = SGP/SGP4

EPOCH          = 2026-02-01T22:00:01.999584
MEAN_MOTION    = 15.73431207
ECCENTRICITY   = .00016036
INCLINATION    = 43.0000
RA_OF_ASC_NODE = 50.5471
ARG_OF_PERICENTER = 258.9784
MEAN_ANOMALY   = 94.1462

EPHEMERIS_TYPE = 0
CLASSIFICATION_TYPE = U
NORAD_CAT_ID   = 67455
ELEMENT_SET_NO = 999
REV_AT_EPOCH   = 404
BSTAR          = -.16392865E-1
MEAN_MOTION_DOT = -.2064933E-1
MEAN_MOTION_DDOT = 0

CCSDS_OMM_VERS = 2.0
CREATION_DATE  = 
ORIGINATOR     = 

OBJECT_NAME    = STARLINK-36493
OBJECT_ID      = 2026-008M
CENTER_NAME    = EARTH
REF_FRAME      = TEME
TIME_SYSTEM    = UTC
MEAN_ELEMENT_THEORY = SGP/SGP4

EPOCH          = 2026-02-01T22:00:01.999584
MEAN_MOTION    = 15.74301259
ECCENTRICITY   = .00016123
INCLINATION    = 43.0000
RA_OF_ASC_NODE = 50.5545
ARG_OF_PERICENTER = 261.4149
MEAN_ANOMALY   = 88.6772

EPHEMERIS_TYPE = 0
CLASSIFICATION_TYPE = U
NORAD_CAT_ID   = 67456
ELEMENT_SET_NO = 999
REV_AT_EPOCH   = 404
BSTAR          = -.15867202E-1
MEAN_MOTION_DOT = -.2074815E-1
MEAN_MOTION_DDOT = 0

CCSDS_OMM_VERS = 2.0
CREATION_DATE  = 
ORIGINATOR     = 

OBJECT_NAME    = STARLINK-36529
OBJECT_ID      = 2026-008N
CENTER_NAME    = EARTH
REF_FRAME      = TEME
TIME_SYSTEM    = UTC
MEAN_ELEMENT_THEORY = SGP/SGP4

EPOCH          = 2026-02-01T22:00:01.999584
MEAN_MOTION    = 15.75069078
ECCENTRICITY   = .00014656
INCLINATION    = 43.0001
RA_OF_ASC_NODE = 50.5494
ARG_OF_PERICENTER = 270.8905
MEAN_ANOMALY   = 81.3456

EPHEMERIS_TYPE = 0
CLASSIFICATION_TYPE = U
NORAD_CAT_ID   = 67457
ELEMENT_SET_NO = 999
REV_AT_EPOCH   = 404
BSTAR          = -.19874853E-3
MEAN_MOTION_DOT = -.30935E-3
MEAN_MOTION_DDOT = 0

CCSDS_OMM_VERS = 2.0
CREATION_DATE  = 
ORIGINATOR     = 

OBJECT_NAME    = STARLINK-36528
OBJECT_ID      = 2026-008P
CENTER_NAME    = EARTH
REF_FRAME      = TEME
TIME_SYSTEM    = UTC
MEAN_ELEMENT_THEORY = SGP/SGP4

EPOCH          = 2026-02-01T22:00:01.999584
MEAN_MOTION    = 15.75087189
ECCENTRICITY   = .00010642
INCLINATION    = 43.0002
RA_OF_ASC_NODE = 50.5399
ARG_OF_PERICENTER = 249.1900
MEAN_ANOMALY   = 106.8691

EPHEMERIS_TYPE = 0
CLASSIFICATION_TYPE = U
NORAD_CAT_ID   = 67458
ELEMENT_SET_NO = 999
REV_AT_EPOCH   = 406
BSTAR          = -.4312907E-3
MEAN_MOTION_DOT = -.66344E-3
MEAN_MOTION_DDOT = 0

CCSDS_OMM_VERS = 2.0
CREATION_DATE  = 
ORIGINATOR     = 

OBJECT_NAME    = STARLINK-36546
OBJECT_ID      = 2026-008Q
CENTER_NAME    = EARTH
REF_FRAME      = TEME
TIME_SYSTEM    = UTC
MEAN_ELEMENT_THEORY = SGP/SGP4

EPOCH          = 2026-02-01T22:00:01.999584
MEAN_MOTION    = 15.75070736
ECCENTRICITY   = .00016997
INCLINATION    = 43.0000
RA_OF_ASC_NODE = 50.5347
ARG_OF_PERICENTER = 265.9233
MEAN_ANOMALY   = 92.0614

EPHEMERIS_TYPE = 0
CLASSIFICATION_TYPE = U
NORAD_CAT_ID   = 67459
ELEMENT_SET_NO = 999
REV_AT_EPOCH   = 404
BSTAR          = -.38009077E-3
MEAN_MOTION_DOT = -.58541E-3
MEAN_MOTION_DDOT = 0

