STARLINK-36423          
1 67448U 26008D   26032.91668981 -.02061446  00000+0 -17288-1 0  9997
2 67448  43.0001  50.5917 0001593 261.7209  73.7687 15.72158026  4044
STARLINK-36519          
1 67449U 26008E   26032.91668981 -.00023013  00000+0 -14705-3 0  9997
2 67449  43.0002  50.5787 0001571 262.8092  77.9303 15.75048217  4043
STARLINK-36525          
1 67450U 26008F   26032.91668981 -.02087671  00000+0 -15728-1 0  9995
2 67450  42.9999  50.5733 0001799 258.2631  84.3208 15.74659943  4048
STARLINK-36511          
1 67451U 26008G   26032.91668981 -.02064112  00000+0 -17119-1 0  9997
2 67451  42.9999  50.5757 0001620 265.1579  76.6629 15.72420574  4041
STARLINK-36524          
1 67452U 26008H   26032.91668981 -.01915054  00000+0 -14139-1 0  9996
2 67452  43.0001  50.5633 0001752 266.4053  80.0534 15.75373713  4047
STARLINK-36518          
1 67453U 26008J   26032.91668981 -.00015864  00000+0 -10034-3 0  9998
2 67453  42.9990  50.1940 0001555 264.7013 226.4632 15.75043784  4067
STARLINK-36517          
1 67454U 26008K   26032.91668981 -.02062133  00000+0 -18277-1 0  9997
2 67454  42.9998  50.5760 0001432 263.8059  77.6358 15.70867665  4062
STARLINK-36516          
1 67455U 26008L   26032.91668981 -.02064933  00000+0 -16393-1 0  9995
2 67455  43.0000  50.5471 0001603 258.9784  94.1462 15.73431207  4048
STARLINK-36493          
1 67456U 26008M   26032.91668981 -.02074815  00000+0 -15867-1 0  9991
2 67456  43.0000  50.5545 0001612 261.4149  88.6772 15.74301259  4041
STARLINK-36529          
1 67457U 26008N   26032.91668981 -.00030935  00000+0 -19875-3 0  9990
2 67457  43.0001  50.5494 0001465 270.8905  81.3456 15.75069078  4046
STARLINK-36528          
1 67458U 26008P   26032.91668981 -.00066344  00000+0 -43129-3 0  9993
2 67458  43.0002  50.5399 0001064 249.1900 106.8691 15.75087189  4060
STARLINK-36546          
1 67459U 26008Q   26032.91668981 -.00058541  00000+0 -38009-3 0  9995
2 67459  43.0000  50.5347 0001699 265.9233  92.0614 15.75070736  4040
